FENGYUN 1C              
1 25730U 99025A   25235.77989797  .00001063  00000+0  47168-3 0  9990
2 25730  98.8980 300.2910 0010185  30.0727 330.1035 14.25184152355562
FENGYUN 1C DEB          
1 29733U 99025X   25235.46460574 -.00000190  00000+0 -26567-3 0  9992
2 29733  99.2319 308.4165 0569980  98.9969 288.3965 12.96199497876787
FENGYUN 1C DEB          
1 29734U 99025Y   25235.62005434  .00000016  00000+0  88551-4 0  9998
2 29734  99.1622 183.8169 0609577 267.1084 283.6551 12.90770205871148
FENGYUN 1C DEB          
1 29735U 99025Z   25235.76620960  .00002401  00000+0  40589-2 0  9998
2 29735  99.3844 169.2554 0709952  60.7235 306.2922 12.74514583860011
FENGYUN 1C DEB          
1 29736U 99025AA  25235.48280610  .00000447  00000+0  10404-2 0  9993
2 29736  99.4146  76.1451 0726816  76.9522 353.6812 12.57281332851463
FENGYUN 1C DEB          
1 29737U 99025AB  25235.85604110  .00001122  00000+0  23067-2 0  9990
2 29737  99.5680 209.1894 0707452  18.7296   9.5388 12.65375479854669
FENGYUN 1C DEB          
1 29738U 99025AC  25235.50700217  .00002012  00000+0  27435-2 0  9990
2 29738  99.4168  62.6560 0860796 175.8227 185.0678 12.60546888848150
FENGYUN 1C DEB          
1 29740U 99025AE  25235.63703830  .00000547  00000+0  14457-2 0  9992
2 29740  99.0528 118.8237 0982802  59.1479 310.2547 12.08056305815939
FENGYUN 1C DEB          
1 29741U 99025AF  25235.72536042  .00000270  00000+0  77824-3 0  9993
2 29741  99.1767 141.5578 1023248 281.9607  91.3177 12.00641065508510
FENGYUN 1C DEB          
1 29748U 99025AN  25235.60090668 -.00001586  00000+0 -15068-1 0  9999
2 29748 100.0964 194.9503 0560634 229.4436 125.6496 11.84867453774151
FENGYUN 1C DEB          
1 29750U 99025AQ  25235.62223339  .00000341  00000+0  21852-3 0  9993
2 29750  98.7694 267.7142 0034903 254.3313 224.1154 14.09510311955088
FENGYUN 1C DEB          
1 29751U 99025AR  25235.91369392  .00000273  00000+0  13270-3 0  9995
2 29751  98.5561 266.8923 0090519 102.2910  18.8462 14.23498823964962
FENGYUN 1C DEB          
1 29754U 99025AU  25235.73813808  .00001327  00000+0  65853-3 0  9999
2 29754  98.8817 338.2784 0036714 196.3881 321.1088 14.18547144957803
FENGYUN 1C DEB          
1 29758U 99025AY  25235.82446157  .00004302  00000+0  14169-2 0  9991
2 29758  98.8533 347.8559 0021041 276.8635 235.3191 14.38572466960752
FENGYUN 1C DEB          
1 29760U 99025BA  25235.92835575  .00000216  00000+0  13965-3 0  9995
2 29760  98.7621 241.2529 0131870 126.3881 234.9538 14.08163078955330
FENGYUN 1C DEB          
1 29762U 99025BC  25235.92115672  .00000487  00000+0  19445-3 0  9995
2 29762  98.5664 221.6265 0203832 297.6392  89.4007 14.22353627963737
FENGYUN 1C DEB          
1 29763U 99025BD  25235.93413764  .00000082  00000+0  67478-4 0  9991
2 29763  98.7462 218.6729 0128554 133.0520 254.8574 14.07740868954917
FENGYUN 1C DEB          
1 29765U 99025BF  25235.82443676  .00000154  00000+0  12641-3 0  9997
2 29765  98.8378 257.4237 0058971  42.0313 139.1606 14.02099062951966
FENGYUN 1C DEB          
1 29766U 99025BG  25235.83479311  .00000854  00000+0  59431-3 0  9999
2 29766  98.6718 191.6644 0144642 235.8484 152.6417 13.96433489942569
FENGYUN 1C DEB          
1 29767U 99025BH  25235.90454164  .00004590  00000+0  18360-2 0  9993
2 29767  98.1847 215.4405 0338009  17.2494  11.7387 14.02013694940461
FENGYUN 1C DEB          
1 29769U 99025BK  25233.58545970  .00002124  00000+0  11212-2 0  9993
2 29769  99.1162 288.8633 0094986  89.4486 271.7568 14.12675682950839
FENGYUN 1C DEB          
1 29770U 99025BL  25235.66088774  .00002293  00000+0  10943-2 0  9997
2 29770  98.8538 311.2987 0063435 229.2706 288.8413 14.19177130955106
FENGYUN 1C DEB          
1 29772U 99025BN  25235.54308472  .00001407  00000+0  86203-3 0  9995
2 29772  98.3994  93.3234 0137258 244.4730 145.3388 14.02742472946964
FENGYUN 1C DEB          
1 29773U 99025BP  25235.91962556  .00000585  00000+0  25589-3 0  9992
2 29773  98.9774  26.4746 0046432 250.8019 261.3534 14.27236373966167
FENGYUN 1C DEB          
1 29774U 99025BQ  25235.82112245  .00000260  00000+0  13520-3 0  9997
2 29774  99.0586 172.9465 0051639  81.4708 343.5369 14.22587195964987
FENGYUN 1C DEB          
1 29776U 99025BS  25235.88764096  .00000280  00000+0  19036-3 0  9992
2 29776  98.7855 265.7375 0023064 221.1148 264.4789 14.07691496955202
FENGYUN 1C DEB          
1 29777U 99025BT  25235.71058336  .00000006  00000+0  38262-4 0  9997
2 29777  99.3012 292.3351 0093691 149.7306 329.7370 13.92049643944965
FENGYUN 1C DEB          
1 29779U 99025BV  25235.80781898  .00000276  00000+0  16650-3 0  9990
2 29779  98.6832 250.3274 0064437 120.8850 239.8681 14.13290655958457
FENGYUN 1C DEB          
1 29780U 99025BW  25235.70337120  .00002465  00000+0  11724-2 0  9994
2 29780  99.2730 151.2529 0044137  83.7489 276.8711 14.19888655955029
FENGYUN 1C DEB          
1 29781U 99025BX  25235.93179206  .00000953  00000+0  60470-3 0  9992
2 29781  98.8045 233.2875 0073433 123.3542 296.4086 14.04878350950877
FENGYUN 1C DEB          
1 29782U 99025BY  25235.71741226  .00001361  00000+0  77109-3 0  9997
2 29782  99.1099 287.7660 0056492 154.5924 320.2373 14.10988624951052
FENGYUN 1C DEB          
1 29784U 99025CA  25235.74836137  .00000707  00000+0  28611-3 0  9995
2 29784  98.9393 151.4843 0059120 259.9853 126.4575 14.30158025967738
FENGYUN 1C DEB          
1 29786U 99025CC  25235.94654032  .00000236  00000+0  15701-3 0  9994
2 29786  98.7453 256.4723 0076782 255.6660 221.8773 14.08990458956007
FENGYUN 1C DEB          
1 29788U 99025CE  25235.88375053  .00002357  00000+0  10188-2 0  9991
2 29788  98.7924 307.3117 0044331 150.5677 270.1804 14.24831996957766
FENGYUN 1C DEB          
1 29789U 99025CF  25235.77688231  .00001202  00000+0  13874-2 0  9998
2 29789  99.4571  63.2802 0297992 198.6858 183.5335 13.53872615914863
FENGYUN 1C DEB          
1 29790U 99025CG  25235.92115299  .00000522  00000+0  20560-3 0  9991
2 29790  99.1384 223.9892 0077639 137.8777 222.8408 14.31946424969390
FENGYUN 1C DEB          
1 29791U 99025CH  25235.91917617  .00005134  00000+0  11631-2 0  9997
2 29791  99.0310 227.1385 0043928  39.7893 350.5280 14.56010372972320
FENGYUN 1C DEB          
1 29792U 99025CJ  25235.13887078  .00001311  00000+0  69908-3 0  9993
2 29792  98.7685 287.7482 0048682 354.9585   5.1092 14.14446959953617
FENGYUN 1C DEB          
1 29793U 99025CK  25233.47311206  .00001092  00000+0  69610-3 0  9990
2 29793  98.3642  61.7490 0143952 297.4083 122.8244 14.00592988945634
FENGYUN 1C DEB          
1 29794U 99025CL  25235.91579752  .00000621  00000+0  34228-3 0  9998
2 29794  98.1936  44.4873 0157587 358.8385 158.0461 14.08577852952875
FENGYUN 1C DEB          
1 29795U 99025CM  25235.85677347  .00000092  00000+0  98282-4 0  9994
2 29795  98.8560   9.9046 0111485 219.7986 304.7319 13.92835713945210
FENGYUN 1C DEB          
1 29796U 99025CN  25235.88695788  .00000908  00000+0  51387-3 0  9997
2 29796  98.8788 288.9244 0052284 220.4608 318.8799 14.11958472954963
FENGYUN 1C DEB          
1 29798U 99025CQ  25235.71417684  .00001492  00000+0  10081-2 0  9992
2 29798  99.3066 297.9301 0113208 216.4662 261.6059 13.98996947943722
FENGYUN 1C DEB          
1 29800U 99025CS  25235.59565096  .00001853  00000+0  12385-2 0  9993
2 29800  98.3028 267.7833 0135579 179.2848 334.1349 13.97697802940233
FENGYUN 1C DEB          
1 29801U 99025CT  25235.71119348  .00000233  00000+0  91704-4 0  9998
2 29801  98.7998 134.4999 0103103 234.4075 144.2152 14.35720283973489
FENGYUN 1C DEB          
1 29802U 99025CU  25235.86090206  .00006776  00000+0  14728-2 0  9993
2 29802  98.6184 340.6238 0039609 321.1078 163.4365 14.57888688968558
FENGYUN 1C DEB          
1 29804U 99025CW  25235.82845084 -.00000096  00000+0 -31450-4 0  9997
2 29804  98.8095 247.3712 0096913 251.8594 285.0006 14.04281347953374
FENGYUN 1C DEB          
1 29805U 99025CX  25235.68273303  .00000090  00000+0  12809-3 0  9999
2 29805  99.4729 288.2746 0189049 158.6791 202.2368 13.72608491931794
FENGYUN 1C DEB          
1 29806U 99025CY  25235.55977859  .00000598  00000+0  35047-3 0  9995
2 29806  98.7214 254.4632 0027858 206.0761 281.5339 14.11720220955703
FENGYUN 1C DEB          
1 29807U 99025CZ  25235.76142516  .00000177  00000+0  12508-3 0  9993
2 29807  98.7563 243.5845 0078920 284.9691  74.2753 14.08527548955328
FENGYUN 1C DEB          
1 29808U 99025DA  25235.68571988  .00037058  00000+0  42509-2 0  9995
2 29808  99.0325 136.6500 0015627 103.5385 286.5325 14.85673672965622
FENGYUN 1C DEB          
1 29809U 99025DB  25235.83116156  .00000842  00000+0  23028-3 0  9992
2 29809  98.8401 194.4645 0116102 322.2457  93.4883 14.46247536978640
FENGYUN 1C DEB          
1 29810U 99025DC  25235.95340914  .00000370  00000+0  16201-3 0  9999
2 29810  99.2218 266.5316 0066579 337.9274  97.3742 14.28928557967959
FENGYUN 1C DEB          
1 29812U 99025DE  25235.80553280  .00000941  00000+0  59434-3 0  9996
2 29812  98.3605  73.8978 0142767 280.8164  95.7691 14.01446992946188
FENGYUN 1C DEB          
1 29813U 99025DF  25235.58580106  .00000157  00000+0  11435-3 0  9997
2 29813  98.7385 258.7994 0012592 174.7290 312.7170 14.09407413956945
FENGYUN 1C DEB          
1 29815U 99025DH  25235.87402606  .00002939  00000+0  45959-3 0  9997
2 29815  98.0598 246.8907 0188364 124.2729 237.6470 14.62292600982346
FENGYUN 1C DEB          
1 29816U 99025DJ  25235.60164287  .00002844  00000+0  60921-3 0  9990
2 29816  99.0083  89.1800 0243192 147.1866 283.8620 14.42750707965845
FENGYUN 1C DEB          
1 29817U 99025DK  25235.92040122  .00000363  00000+0  21277-3 0  9992
2 29817  98.5490 229.8259 0011388 334.3318  55.4141 14.14039924958297
